QZS-1R                  
1 49336U 21096A   24209.51462639 -.00000306  00000+0  00000+0 0  9994
2 49336  36.0236  89.9152 0758626 272.2400 259.8163  1.00243936 10094
